OBJECT_NAME,OBJECT_ID,EPOCH,MEAN_MOTION,ECCENTRICITY,INCLINATION,RA_OF_ASC_NODE,ARG_OF_PERICENTER,MEAN_ANOMALY,EPHEMERIS_TYPE,CLASSIFICATION_TYPE,NORAD_CAT_ID,ELEMENT_SET_NO,REV_AT_EPOCH,BSTAR,MEAN_MOTION_DOT,MEAN_MOTION_DDOT
GSAT0215 (GALILEO 19),2017-079A,2026-06-16T10:17:47.154336,1.70474560,.00031193,55.0735,221.5277,263.4417,96.6201,0,U,43055,999,5297,0,.46E-6,0
GSAT0216 (GALILEO 20),2017-079B,2026-06-13T18:53:40.298208,1.70474522,.00044684,55.0743,221.6004,275.6764,84.3739,0,U,43056,999,5294,0,.61E-6,0
GSAT0217 (GALILEO 21),2017-079C,2026-06-15T04:20:58.191648,1.70474278,.0004444,55.0707,221.5599,284.3881,75.6642,0,U,43057,999,5295,0,.56E-6,0
GSAT0218 (GALILEO 22),2017-079D,2026-06-13T01:19:09.756192,1.70474471,.00050247,55.0728,221.6159,272.4694,87.5720,0,U,43058,999,5294,0,.61E-6,0
BEIDOU-3 M7 (C27),2018-003A,2026-06-16T06:38:18.131136,1.86228044,.0004822,54.3292,302.3473,94.2726,265.7691,0,U,43107,999,5733,0,-.71E-6,0
BEIDOU-3 M8 (C28),2018-003B,2026-06-15T16:25:34.422816,1.86230980,.00025966,54.3221,302.3497,261.7329,98.2226,0,U,43108,999,5733,0,-.71E-6,0
BEIDOU-3 M4 (C22),2018-018A,2026-06-16T03:03:29.316096,1.86230832,.0007711,56.6499,63.1838,19.0983,340.9685,0,U,43207,999,5672,0,-.5E-6,0
BEIDOU-3 M3 (C21),2018-018B,2026-06-16T04:39:13.100832,1.86230678,.0008705,56.6497,63.1857,341.1278,18.8782,0,U,43208,999,5672,0,-.5E-6,0
BEIDOU-3 M9 (C29),2018-029A,2026-06-16T09:52:51.229920,1.86227974,.0001003,54.1945,299.9756,155.3229,204.6710,0,U,43245,999,5588,0,-.69E-6,0
BEIDOU-3 M10 (C30),2018-029B,2026-06-16T08:18:20.054016,1.86229142,.0003787,54.1924,300.0050,39.7173,320.2992,0,U,43246,999,5586,0,-.69E-6,0
IRNSS-1I,2018-035A,2026-06-15T20:09:20.172384,1.00272046,.00178117,28.7520,74.2167,181.5598,5.5147,0,U,43286,999,3006,0,.62E-6,0
COSMOS 2527 (756),2018-053A,2026-06-16T03:30:27.569088,2.13102090,.00071901,65.5769,73.9425,240.1644,119.7952,0,U,43508,999,6225,0,-.2E-6,0
BEIDOU-2 IGSO-7 (C16),2018-057A,2026-06-15T22:07:43.170816,1.00251416,.01050678,55.1938,163.0687,238.0100,305.1025,0,U,43539,999,2911,0,-.27E-6,0
GSAT0221 (GALILEO 25),2018-060A,2026-06-16T11:28:52.830336,1.70475890,.0002609,57.1694,341.7993,304.1202,55.8507,0,U,43564,999,4915,0,-.87E-6,0
GSAT0222 (GALILEO 26),2018-060B,2026-06-15T12:35:49.498944,1.70475624,.00019647,57.1732,341.8288,249.0042,110.9733,0,U,43565,999,4918,0,-.83E-6,0
GSAT0219 (GALILEO 23),2018-060C,2026-06-16T07:58:35.300064,1.70475853,.0002038,57.1726,341.8084,324.7693,35.2133,0,U,43566,999,4917,0,-.86E-6,0
GSAT0220 (GALILEO 24),2018-060D,2026-06-16T13:16:48.697824,1.70475554,.0002138,57.1721,341.8022,311.2729,48.7042,0,U,43567,999,4916,0,-.87E-6,0
BEIDOU-3 M5 (C23),2018-062A,2026-06-16T00:47:47.421600,1.86228715,.00055389,54.0851,182.3434,288.6554,71.3241,0,U,43581,999,5361,0,.73E-6,0
BEIDOU-3 M6 (C24),2018-062B,2026-06-15T08:37:58.723680,1.86227634,.00049181,54.0850,182.3554,8.9960,351.0582,0,U,43582,999,5360,0,.83E-6,0
BEIDOU-3 M12 (C26),2018-067A,2026-06-14T18:16:04.040832,1.86227714,.00077355,54.1799,181.1228,29.8475,330.2441,0,U,43602,999,5307,0,.93E-6,0
BEIDOU-3 M11 (C25),2018-067B,2026-06-14T08:37:19.994880,1.86227183,.00044374,54.1775,181.0999,12.9310,347.1309,0,U,43603,999,5309,0,.99E-6,0
BEIDOU-3 M13 (C32),2018-072A,2026-06-15T22:11:58.439616,1.86231268,.0007311,56.6234,62.7019,328.8537,31.1409,0,U,43622,999,5263,0,-.51E-6,0
BEIDOU-3 M14 (C33),2018-072B,2026-06-16T07:51:24.994368,1.86231323,.0006188,56.6255,62.6830,359.6578,0.3811,0,U,43623,999,5263,0,-.51E-6,0
BEIDOU-3 M16 (C35),2018-078A,2026-06-16T11:35:05.201376,1.86232176,.0007191,54.0906,300.0107,40.8827,319.1605,0,U,43647,999,5214,0,-.69E-6,0
BEIDOU-3 M15 (C34),2018-078B,2026-06-14T11:08:25.881216,1.86232267,.00042043,54.0883,300.0818,57.5981,302.4264,0,U,43648,999,5212,0,-.68E-6,0
BEIDOU-3 G1 (C59),2018-085A,2026-06-16T17:11:46.480416,1.00270370,.0008048,2.8664,97.3833,349.3510,236.1476,0,U,43683,999,2805,0,-.113E-5,0
COSMOS 2529 (757),2018-086A,2026-06-16T05:49:25.258080,2.13101928,.0012031,64.2948,192.6264,256.4930,103.4343,0,U,43687,999,5926,0,.76E-6,0
BEIDOU-3 M17 (C36),2018-093A,2026-06-16T09:57:34.056000,1.86228321,.00101643,54.1690,182.3223,291.9896,187.6133,0,U,43706,999,5152,0,.68E-6,0
BEIDOU-3 M18 (C37),2018-093B,2026-06-16T02:23:50.883936,1.86226619,.0007997,54.1695,182.3251,320.4570,39.5237,0,U,43707,999,5151,0,.72E-6,0
GPS BIII-1  (PRN 04),2018-109A,2026-06-16T19:08:07.564128,2.00561458,.003815,55.6819,92.2019,197.9170,4.3345,0,U,43873,999,5506,0,-.18E-6,0
BEIDOU-3 IGSO-1 (C38),2019-023A,2026-06-16T14:11:00.247776,1.00291370,.0025458,58.6939,37.6556,225.7166,332.2073,0,U,44204,999,720,0,-.221E-5,0
